CORAL                   
1 67684U 98067YA  26080.07336732  .00089334  00000+0  12447-2 0  9994
2 67684  51.6314  14.6747 0012087 215.9469 144.0710 15.56092356  6562
GXIBA-1                 
1 67685U 98067YB  26080.11495484  .00047255  00000+0  74016-3 0  9997
2 67685  51.6326  14.9523 0011665 223.8015 136.2051 15.53173336  6563
UITMSAT-2               
1 67686U 98067YC  26079.20424217  .00036971  00000+0  56833-3 0  9992
2 67686  51.6331  19.3725 0008503 189.8163 170.2663 15.53839493  6420
HMU-SAT2                
1 67687U 98067YD  26080.11864851  .00045244  00000+0  71638-3 0  9990
2 67687  51.6326  14.9790 0008241 196.2419 163.8308 15.52930306  6487
LEOPARD                 
1 67688U 98067YE  26080.10933344  .00050861  00000+0  78512-3 0  9993
2 67688  51.6330  14.9166 0008406 194.0087 166.0671 15.53580320  6486
CREW DRAGON 12          
1 67796U 26031A   26080.13034352  .00010852  00000+0  20900-3 0  9993
2 67796  51.6347  15.8024 0006360 214.2471 145.8108 15.48410073558029
